MEAN_MOTION;ECCENTRICITY;INCLINATION;RA_OF_ASC_NODE;ARG_OF_PERICENTER;MEAN_ANOMALY;BSTAR;MEAN_MOTION_DOT;MEAN_MOTION_DDOT;TYPE
0.99472282;0.001937;14.5904;348.507;190.3718;72.0057;0;-2.01E-6;0;Intelsat
0.99472455;0.0019386;14.589;348.4892;190.1858;349.0493;0;-2.41E-6;0;Intelsat
0.99472469;0.0019393;14.5883;348.4795;190.1165;332.6971;0;-2.62E-6;0;Intelsat
0.99472439;0.0019399;14.5875;348.469;190.0004;348.6507;0;-2.83E-6;0;Intelsat
0.99472305;0.0019398;14.5866;348.4577;189.8405;34.7977;0;-3.03E-6;0;Intelsat
0.99472179;0.0019398;14.5859;348.4489;189.7279;351.6241;0;-3.16E-6;0;Intelsat
0.99472007;0.0019391;14.5851;348.439;189.6364;348.1643;0;-3.29E-6;0;Intelsat
0.99471744;0.0019382;14.5843;348.429;189.5531;349.5974;0;-3.39E-6;0;Intelsat
0.99471452;0.0019369;14.5835;348.4192;189.4859;339.7361;0;-3.46E-6;0;Intelsat
0.99471141;0.0019355;14.5827;348.4091;189.3727;347.5441;0;-3.49E-6;0;Intelsat
0.99470764;0.0019342;14.5819;348.3992;189.2577;347.3863;0;-3.51E-6;0;Intelsat
0.9947038;0.0019326;14.581;348.3894;189.2693;341.9892;0;-3.5E-6;0;Intelsat
0.99470263;0.001932;14.5808;348.387;189.2411;69.2067;0;-3.49E-6;0;Intelsat
0.99469946;0.0019314;14.5802;348.3795;189.1409;340.9692;0;-3.46E-6;0;Intelsat
0.99469926;0.0019313;14.5802;348.3791;189.1311;355.6516;0;-3.46E-6;0;Intelsat
0.99469437;0.0019303;14.5794;348.3693;189.0012;350.6882;0;-3.39E-6;0;Intelsat
0.9946889;0.0019293;14.5784;348.3578;188.8246;47.3815;0;-3.28E-6;0;Intelsat
0.99468469;0.0019289;14.5777;348.3495;188.7016;346.3905;0;-3.19E-6;0;Intelsat
0.99467944;0.0019294;14.5768;348.3397;188.5292;346.2732;0;-3.06E-6;0;Intelsat
0.9946766;0.001931;14.5764;348.3346;188.3918;171.076;0;-2.98E-6;0;Intelsat
0.99467393;0.0019305;14.576;348.3294;188.3051;2.1477;0;-2.89E-6;0;Intelsat
0.99466358;0.001933;14.5742;348.3089;187.9366;30.9812;0;-2.51E-6;0;Intelsat
0.99465949;0.0019345;14.5735;348.3004;187.7874;345.7628;0;-2.33E-6;0;Intelsat
0.99465688;0.0019366;14.573;348.2953;187.6621;170.6449;0;-2.22E-6;0;Intelsat
0.99465462;0.0019373;14.5726;348.2905;187.5763;345.6615;0;-2.12E-6;0;Intelsat
0.994649;0.001941;14.5715;348.2779;187.3827;89.7236;0;-1.83E-6;0;Intelsat
0.994649;0.001941;14.5715;348.2779;187.3827;89.7236;0;-1.83E-6;0;Intelsat
0.99464604;0.0019433;14.571;348.2708;187.2683;345.3106;0;-1.67E-6;0;Intelsat
0.99464381;0.0019452;14.5705;348.2659;187.1819;167.1258;0;-1.56E-6;0;Intelsat
0.99463851;0.0019507;14.5693;348.2512;186.9917;344.9471;0;-1.23E-6;0;Intelsat
0.99463556;0.0019547;14.5685;348.2413;186.8683;344.7613;0;-1.01E-6;0;Intelsat
0.99463302;0.0019591;14.5677;348.2314;186.7414;344.5748;0;-8.0E-7;0;Intelsat
0.99463029;0.0019641;14.5667;348.2187;186.6228;83.3221;0;-5.6E-7;0;Intelsat
0.99462908;0.0019657;14.5661;348.2116;186.6191;344.0178;0;-4.2E-7;0;Intelsat
0.99462779;0.0019685;14.5653;348.2017;186.5636;343.7458;0;-2.4E-7;0;Intelsat
0.99462737;0.001971;14.5644;348.1919;186.5109;343.4817;0;-7.0E-8;0;Intelsat
0.99462711;0.0019745;14.5636;348.182;186.4075;343.2664;0;8.0E-8;0;Intelsat
0.9946276;0.0019764;14.5628;348.1722;186.3531;342.9882;0;2.4E-7;0;Intelsat
0.9946286;0.0019777;14.562;348.1624;186.3231;342.686;0;3.7E-7;0;Intelsat
0.99463002;0.0019786;14.5611;348.1514;186.2692;26.835;0;5.1E-7;0;Intelsat
0.99463222;0.0019799;14.5603;348.1422;186.1992;7.7952;0;6.1E-7;0;Intelsat
0.99463478;0.0019809;14.5594;348.1324;186.1195;7.5726;0;6.9E-7;0;Intelsat
0.99463755;0.0019836;14.5586;348.1233;185.9823;341.7324;0;7.5E-7;0;Intelsat
0.99463892;0.0019842;14.5582;348.1184;185.9055;161.6438;0;7.7E-7;0;Intelsat
0.99464081;0.0019849;14.5577;348.1128;185.8685;7.176;0;7.9E-7;0;Intelsat
0.9946423;0.0019857;14.5573;348.1086;185.809;161.4251;0;8.0E-7;0;Intelsat
0.99464427;0.0019864;14.5568;348.103;185.7636;6.9402;0;8.1E-7;0;Intelsat
0.99464821;0.0019885;14.556;348.0933;185.6181;6.7782;0;8.1E-7;0;Intelsat
0.99465259;0.0019911;14.5551;348.0835;185.485;6.6002;0;7.8E-7;0;Intelsat
0.99465715;0.0019939;14.5543;348.0738;185.3474;6.4059;0;7.3E-7;0;Intelsat
0.99465909;0.0019963;14.5538;348.0692;185.2815;174.4434;0;6.9E-7;0;Intelsat
0.99466389;0.0019999;14.553;348.0595;185.1442;174.164;0;6.1E-7;0;Intelsat
0.99466658;0.0020014;14.5525;348.0543;185.0508;6.0175;0;5.6E-7;0;Intelsat
0.99467141;0.0020057;14.5516;348.0445;184.9052;5.8736;0;4.5E-7;0;Intelsat
0.99467347;0.0020088;14.5512;348.04;184.8573;176.1093;0;3.9E-7;0;Intelsat
0.99467616;0.0020106;14.5507;348.0348;184.7586;5.7044;0;3.2E-7;0;Intelsat
0.99467865;0.0020133;14.5503;348.0302;184.7367;177.5597;0;2.5E-7;0;Intelsat
0.99468092;0.0020151;14.5498;348.0251;184.6483;5.5081;0;1.8E-7;0;Intelsat
0.99468308;0.0020185;14.5494;348.0206;184.6158;172.0489;0;1.1E-7;0;Intelsat
0.99468796;0.0020244;14.5485;348.0107;184.4952;175.9885;0;-6.0E-8;0;Intelsat
0.9946901;0.0020268;14.5481;348.0056;184.4173;5.1189;0;-1.6E-7;0;Intelsat
0.99469427;0.0020328;14.5472;347.9958;184.3247;4.8873;0;-3.4E-7;0;Intelsat
0.99469863;0.00204;14.5463;347.986;184.2235;4.6827;0;-5.4E-7;0;Intelsat
0.9947031;0.0020486;14.5452;347.9737;184.1435;91.4804;0;-8.0E-7;0;Intelsat
0.99470825;0.0020595;14.5437;347.9563;184.0458;3.9614;0;-1.18E-6;0;Intelsat
0.99471095;0.0020654;14.5429;347.9464;184.0162;3.7138;0;-1.39E-6;0;Intelsat
0.99471306;0.0020719;14.542;347.9365;183.9797;3.4433;0;-1.6E-6;0;Intelsat
0.99471467;0.002077;14.5411;347.9267;183.9649;3.1613;0;-1.8E-6;0;Intelsat
0.99471642;0.0020828;14.5399;347.912;183.9699;182.7239;0;-2.07E-6;0;Intelsat
0.99471694;0.0020857;14.5394;347.9071;183.9424;2.5926;0;-2.15E-6;0;Intelsat
0.994717;0.0020895;14.5386;347.8973;183.9319;2.3005;0;-2.3E-6;0;Intelsat
0.99471721;0.0020909;14.5381;347.8924;183.9328;182.1786;0;-2.37E-6;0;Intelsat
0.99471611;0.0020949;14.5368;347.8777;183.9203;1.7495;0;-2.54E-6;0;Intelsat
0.99471559;0.0020976;14.5362;347.8729;183.8935;181.6255;0;-2.59E-6;0;Intelsat
0.99471452;0.0021008;14.5352;347.8631;183.8638;181.3361;0;-2.68E-6;0;Intelsat
0.99471393;0.0021021;14.5348;347.8582;183.8533;1.2062;0;-2.71E-6;0;Intelsat
0.99471289;0.0021043;14.5343;347.8533;183.8206;181.0917;0;-2.75E-6;0;Intelsat
0.99471134;0.0021078;14.5334;347.8435;183.7734;180.8362;0;-2.8E-6;0;Intelsat
0.99471007;0.0021085;14.533;347.8386;183.7661;0.7046;0;-2.82E-6;0;Intelsat
0.99470906;0.0021101;14.5325;347.8336;183.7331;180.5801;0;-2.84E-6;0;Intelsat
0.99470785;0.0021114;14.532;347.8289;183.718;356.361;0;-2.85E-6;0;Intelsat
0.9947063;0.0021145;14.5316;347.824;183.6669;174.4483;0;-2.86E-6;0;Intelsat
0.99470346;0.002119;14.5307;347.814;183.6065;180.1015;0;-2.87E-6;0;Intelsat
0.99470032;0.0021237;14.5298;347.8042;183.5379;179.8941;0;-2.85E-6;0;Intelsat
0.9946971;0.0021293;14.5288;347.7943;183.4667;183.0568;0;-2.83E-6;0;Intelsat
0.99469551;0.0021314;14.5284;347.7893;183.4314;4.4727;0;-2.81E-6;0;Intelsat
0.99469225;0.0021376;14.5275;347.7796;183.3619;359.3136;0;-2.77E-6;0;Intelsat
0.99468863;0.0021453;14.5266;347.7701;183.2934;352.3593;0;-2.71E-6;0;Intelsat
0.99468684;0.00215;14.5263;347.765;183.2746;179.9071;0;-2.68E-6;0;Intelsat
0.99468326;0.0021591;14.5254;347.7552;183.2226;175.8405;0;-2.6E-6;0;Intelsat
0.9946795;0.0021657;14.5245;347.7452;183.1827;178.3539;0;-2.52E-6;0;Intelsat
0.99467621;0.0021732;14.5235;347.7354;183.1527;178.0776;0;-2.42E-6;0;Intelsat
0.99467222;0.002181;14.5226;347.7255;183.1227;177.7883;0;-2.33E-6;0;Intelsat
0.99466852;0.0021891;14.5217;347.7156;183.1055;177.4994;0;-2.22E-6;0;Intelsat
0.99466488;0.0021989;14.5208;347.7057;183.1102;177.1822;0;-2.12E-6;0;Intelsat
0.99466188;0.002207;14.5199;347.6958;183.1262;176.8471;0;-2.01E-6;0;Intelsat
0.99465967;0.0022133;14.5194;347.6891;183.1548;61.4379;0;-1.94E-6;0;Intelsat
0.99465852;0.0022155;14.5191;347.6859;183.1532;176.5178;0;-1.9E-6;0;Intelsat
0.99465555;0.0022229;14.5181;347.676;183.1895;175.0071;0;-1.78E-6;0;Intelsat
0.99465237;0.0022309;14.5172;347.6661;183.2401;175.7769;0;-1.65E-6;0;Intelsat
0.99464998;0.0022366;14.5163;347.6562;183.2994;175.3936;0;-1.51E-6;0;Intelsat
0.9946473;0.0022423;14.5155;347.6463;183.3554;175.0011;0;-1.37E-6;0;Intelsat
0.99464492;0.0022474;14.5146;347.6365;183.4114;174.65;0;-1.21E-6;0;Intelsat
0.99464262;0.0022541;14.5136;347.6257;183.4734;204.7391;0;-1.04E-6;0;Intelsat
0.99464121;0.0022588;14.5127;347.6163;183.5222;186.4448;0;-8.8E-7;0;Intelsat
0.99463974;0.0022629;14.5118;347.6068;183.5622;173.5202;0;-7.1E-7;0;Intelsat
0.99463917;0.0022654;14.5113;347.6019;183.597;353.3223;0;-6.3E-7;0;Intelsat
0.99463895;0.0022678;14.5109;347.5969;183.6013;173.1492;0;-5.4E-7;0;Intelsat
0.99463822;0.0022723;14.5098;347.5864;183.6338;196.3571;0;-3.6E-7;0;Intelsat
0.99463799;0.0022745;14.5094;347.5814;183.6622;17.2758;0;-2.8E-7;0;Intelsat
0.99463804;0.0022792;14.5085;347.5722;183.6852;352.2354;0;-1.2E-7;0;Intelsat
0.99463882;0.0022863;14.5071;347.5571;183.691;180.8735;0;1.1E-7;0;Intelsat
0.99463961;0.0022916;14.5062;347.5474;183.703;175.7761;0;2.4E-7;0;Intelsat
0.99464068;0.0022969;14.5052;347.5375;183.7114;173.258;0;3.7E-7;0;Intelsat
0.99464124;0.0022995;14.5048;347.5327;183.7183;350.8924;0;4.3E-7;0;Intelsat
0.99464429;0.0023103;14.5033;347.5167;183.7359;211.957;0;5.9E-7;0;Intelsat
0.99464585;0.0023142;14.5028;347.5113;183.7326;48.9059;0;6.4E-7;0;Intelsat
0.99464709;0.0023176;14.5025;347.508;183.7529;169.9297;0;6.7E-7;0;Intelsat
0.99464941;0.002325;14.5015;347.4981;183.7702;169.71;0;7.3E-7;0;Intelsat
0.99465251;0.0023323;14.5006;347.4883;183.7924;164.1336;0;7.8E-7;0;Intelsat
0.99465586;0.0023408;14.4997;347.4784;183.8274;161.4367;0;8.0E-7;0;Intelsat
0.99465945;0.0023483;14.4988;347.4685;183.8632;161.5186;0;8.0E-7;0;Intelsat
0.99466329;0.0023561;14.4979;347.4586;183.9092;155.8122;0;7.8E-7;0;Intelsat
0.99466726;0.0023637;14.497;347.4483;183.9673;167.8858;0;7.3E-7;0;Intelsat
0.9946714;0.0023715;14.4961;347.4383;184.0378;167.5185;0;6.6E-7;0;Intelsat
0.99467574;0.0023787;14.4952;347.4282;184.1166;167.1047;0;5.6E-7;0;Intelsat
0.99468025;0.0023855;14.4943;347.4181;184.2055;166.7046;0;4.3E-7;0;Intelsat
0.99468472;0.002393;14.4934;347.4075;184.3113;185.9164;0;2.8E-7;0;Intelsat
0.99468904;0.002399;14.4925;347.3975;184.4212;181.9183;0;1.3E-7;0;Intelsat
